PopName,glottocodeBase,samplePopID,geographicRegion,publication,country,lat,lon,glottolog.node1,LangFamily,isolate,LowSampleSize,LowQualitySNP,proxyHeggartyTree,LangNameHeggartyTree
Abazin,abaz1241,Karachaevo-Cherkessia_Republic__Prikubansky_district,EURASIA,Jeong_2019,Russia,44.15,42.2,abkh1242,Abkhaz-Adyge,Family,NO,NO,0,0
Abkhasian,abkh1244,NA,EURASIA,LazaridisNature2014,Abkhazia,43.003333,41.015278,abkh1242,Abkhaz-Adyge,Family,NO,NO,0,0
Adygei,adyg1241,21,EURASIA,PattersonGenetics2012,Russia(Caucasus),44,39,abkh1242,Abkhaz-Adyge,Family,NO,NO,0,0
Adygei_Abadzhekh,abad1240,Adyghei_Republic__Shovgenovsky_district,EURASIA,Jeong_2019,Russia,45.01,40.22,abkh1242,Abkhaz-Adyge,Family,YES,NO,0,0
Adygei_Bzhedug,bezh1247,Adyghei_Republic__Takhtamukayski_district,EURASIA,Jeong_2019,Russia,44.89,39.24,abkh1242,Abkhaz-Adyge,Family,YES,NO,0,0
Adygei_Mamkheg,adyg1241,Adyghei_Republic__Shovgenovsky_district__Mamkheg_village,EURASIA,Jeong_2019,Russia,45,40.22,abkh1242,Abkhaz-Adyge,Family,YES,NO,0,0
Adygei_Shapsug_Black_Sea,shap1240,Krasnodar_region__Lazarevsky_and_Tuapsinsky_districts,EURASIA,Jeong_2019,Russia,44.15,39.12,abkh1242,Abkhaz-Adyge,Family,YES,NO,0,0
Adygei_Shapsug_Kuban,shap1240,Adyghei_Republic,EURASIA,Jeong_2019,Russia,45,38.75,abkh1242,Abkhaz-Adyge,Family,YES,NO,0,0
Araba,aval1237,NA,EURASIA,FloresBelloBasque2021,Spain,42.8592,-2.6818,basq1248,Basque,Isolate,NO,NO,0,0
Albanian,alba1267,NA,EURASIA,LazaridisNature2014,Albania,41.33,19.83,indo1319,Indo-European,Family,NO,NO,alba1267,AlbanianStandard
Armenian,nucl1235,NA,EURASIA,LazaridisNature2014,Armenia,40.193561,44.545441,indo1319,Indo-European,Family,NO,NO,nucl1235,ArmenianEastern
Armenian_Hemsheni,hams1240,Adyghei_Republic__Maykop__p.Proletarsky,EURASIA,Jeong_2019,Russia,41,39.7,indo1319,Indo-European,Family,NO,NO,nucl1235,ArmenianEastern
Armenian_WGA,nucl1235,NA,EURASIA,LazaridisNature2014,Armenia,40.2,44.5,indo1319,Indo-European,Family,YES,NO,nucl1235,ArmenianEastern
Ashkenazi_Jew,east2295,NA,EURASIA,LazaridisNature2014,Poland,52.23333333,21.01666667,indo1319,Indo-European,Family,NO,NO,0,0
Assyrian_WGA,assy1241,NA,EURASIA,LazaridisNature2014,Armenia,40.3,44.6,afro1255,Afro-Asiatic,Family,NO,NO,0,0
Avar_Gunibsky,avar1256,Dagestan_Republic__Gunibsky_district,EURASIA,Jeong_2019,Russia,41.22,48.3,nakh1245,Nakh-Daghestanian,Family,NO,NO,0,0
Avar_Unchukulsky,avar1256,Dagestan_Republic__Unchukulsky_district,EURASIA,Jeong_2019,Russia,42.41,46.43,nakh1245,Nakh-Daghestanian,Family,NO,NO,0,0
Azeri_Azerbajan,nort2697,Azerbajan,EURASIA,Jeong_2019,Azerbaijan,40.06,47.19,turk1311,Turkic,Family,NO,NO,0,0
Azeri_Dagestan,nort2697,Dagestan_Republic,EURASIA,Jeong_2019,Russia,42.2,48.23,turk1311,Turkic,Family,NO,NO,0,0
Balkar,kara1465,NA,EURASIA,LazaridisNature2014,Russia,43.483333,43.616667,turk1311,Turkic,Family,NO,NO,0,0
Bashkir_Burzjan_Baimaksky,burz1239,Bashkiria_Republic__Baimaksky_district,EURASIA,Jeong_2019,Russia,52.58,58.32,turk1311,Turkic,Family,NO,NO,0,0
Bashkir_IkskoBelsky_Kyrgyz,bash1264,Bashkiria_Republic__Ilishevsky_district,EURASIA,Jeong_2019,Russia,55.43,54.32,turk1311,Turkic,Family,NO,NO,0,0
Bashkir_IkskoBelsky_Uran,bash1264,Bashkiria_Republic__Ianaul,EURASIA,Jeong_2019,Russia,56.27,54.08,turk1311,Turkic,Family,NO,NO,0,0
Bashkir_Ming_Miyakinsky,bash1264,Bashkiria_Republic__Davlekanovo,EURASIA,Jeong_2019,Russia,54.9,55.03,turk1311,Turkic,Family,NO,NO,0,0
Bashkir_North_Tabyn_Balysky,bash1264,Bashkiria_Republic__Arkhangelsk_district,EURASIA,Jeong_2019,Russia,54.52,56.93,turk1311,Turkic,Family,NO,NO,0,0
Bashkir_North_Unlar,bash1264,Bashkiria_Republic__Karaidelsky_district,EURASIA,Jeong_2019,Russia,55.87,56.73,turk1311,Turkic,Family,YES,NO,0,0
Bashkir_Tamyan_Kypcak,bash1264,Bashkiria_Republic__Kugarchinsky_district,EURASIA,Jeong_2019,Russia,52.67,56.55,turk1311,Turkic,Family,NO,NO,0,0
Bashkir_Yurmaty,yurm1239,Bashkiria_Republic__Ishimbai,EURASIA,Jeong_2019,Russia,53.45,56.03,turk1311,Turkic,Family,YES,NO,0,0
Basque,basq1248,24,EURASIA,PattersonGenetics2012,France,43,0,basq1248,Basque,Isolate,NO,NO,0,0
Bizkaia,bisc1236,NA,EURASIA,FloresBelloBasque2021,Spain,43.263,-2.935,basq1248,Basque,Isolate,NO,NO,0,0
Bearn,stan1290,NA,EURASIA,FloresBelloBasque2021,France,43.5547,-0.1576,indo1319,Indo-European,Family,NO,NO,stan1290,French
BedouinA,east2690,NA,EURASIA,PattersonGenetics2012,Israel,31,35,afro1255,Afro-Asiatic,Family,NO,NO,0,0
BedouinB,east2690,NA,EURASIA,PattersonGenetics2012,Israel,31,35,afro1255,Afro-Asiatic,Family,NO,NO,0,0
Belarusian,bela1254,NA,EURASIA,LazaridisNature2014,Belarus,53.9198542,28.0119322,indo1319,Indo-European,Family,NO,NO,bela1254,Belarusian
Besermyan,bese1243,Udmurtia_Republic__Yukamensky_district,EURASIA,Jeong_2019,Russia,58.01,52.09,ural1272,Uralic,Family,NO,NO,0,0
Bigorre,stan1290,NA,EURASIA,FloresBelloBasque2021,France,43.1256,0.3164,indo1319,Indo-European,Family,NO,NO,stan1290,French
WesternBizkaia,stan1288,NA,EURASIA,FloresBelloBasque2021,Spain,43.242,-3.1853,indo1319,Indo-European,Family,NO,NO,stan1288,Spanish
Bulgarian,bulg1262,NA,EURASIA,LazaridisNature2014,Bulgaria,42.163403,24.741211,indo1319,Indo-European,Family,NO,NO,bulg1262,Bulgarian
Burgos,stan1288,NA,EURASIA,FloresBelloBasque2021,Spain,42.344,-3.6969,indo1319,Indo-European,Family,NO,NO,stan1288,Spanish
Cantabria,stan1288,NA,EURASIA,FloresBelloBasque2021,Spain,43.1828,-3.9878,indo1319,Indo-European,Family,NO,NO,stan1288,Spanish
Chalosse,stan1290,NA,EURASIA,FloresBelloBasque2021,France,43.7011,-1.0118,indo1319,Indo-European,Family,NO,NO,stan1290,French
Chechen,chec1245,NA,EURASIA,LazaridisNature2014,Russia,43.333333,45.65,nakh1245,Nakh-Daghestanian,Family,NO,NO,0,0
Chuvash,chuv1255,NA,EURASIA,LazaridisNature2014,Russia,56.110278,47.251111,turk1311,Turkic,Family,NO,NO,0,0
Chuvash_Tatarstan,chuv1255,Tatarstan_Republic__Apastovsky__Drozhzhanovsky__Kaibitsky_districts,EURASIA,Jeong_2019,Russia,54.75,47.78,turk1311,Turkic,Family,NO,NO,0,0
Circassian,circ1239,Karachaevo-Cherkessia_Republic,EURASIA,Jeong_2019,Russia,44.2,41.83,abkh1242,Abkhaz-Adyge,Family,NO,NO,0,0
Croatian,croa1245,NA,EURASIA,LazaridisNature2014,Croatia,43.513,16.446,indo1319,Indo-European,Family,NO,NO,croa1245,SerboCroatian
Cypriot,cypr1248,NA,EURASIA,LazaridisNature2014,Cyprus,35.13,33.43,afro1255,Afro-Asiatic,Family,NO,NO,0,0
Czech,czec1258,NA,EURASIA,LazaridisNature2014,Czechoslovia(pre1989),50.1,14.4,indo1319,Indo-European,Family,NO,NO,czec1258,Czech
Darginian,darg1241,Dagestan_Republic,EURASIA,Jeong_2019,Russia,42.18,47.22,nakh1245,Nakh-Daghestanian,Family,NO,NO,0,0
Druze,sout3123,37,EURASIA,PattersonGenetics2012,Israel,32,35,afro1255,Afro-Asiatic,Family,NO,NO,0,0
English_Cornwall,stan1293,NA,EURASIA,LazaridisNature2014,GreatBritain,50.03,-4.9,indo1319,Indo-European,Family,NO,NO,stan1293,English
English_Kent,stan1293,NA,EURASIA,LazaridisNature2014,GreatBritain,51.19,0.73,indo1319,Indo-European,Family,NO,NO,stan1293,English
Estonian,esto1258,NA,EURASIA,LazaridisNature2014,Estonia,58.5390393,24.8892515,ural1272,Uralic,Family,NO,NO,0,0
Ezid,nort2641,Armavir_and_Aragatsotn_regions,EURASIA,Jeong_2019,Armenia,36.9,46.6,indo1319,Indo-European,Family,NO,NO,nort2641,KurdishNBahdini
Finnish,finn1318,NA,EURASIA,LazaridisNature2014,Finland,60.2,24.9,ural1272,Uralic,Family,NO,NO,0,0
French_Central,stan1290,25,EURASIA,PattersonGenetics2012,France,46,2,indo1319,Indo-European,Family,NO,NO,stan1290,French
French_East,stan1290,NA,EURASIA,LazaridisNature2014,France,49.0469805,6.61545411,indo1319,Indo-European,Family,NO,NO,stan1290,French
French_Northwest,stan1290,NA,EURASIA,LazaridisNature2014,France,50.46199264,2.332995724,indo1319,Indo-European,Family,NO,NO,stan1290,French
French_South,stan1290,NA,EURASIA,LazaridisNature2014,France,43.09,-0.05,indo1319,Indo-European,Family,NO,NO,stan1290,French
French_West,stan1290,NA,EURASIA,LazaridisNature2014,France,48.29879354,-4.123009966,indo1319,Indo-European,Family,NO,NO,stan1290,French
Gagauz,gaga1249,Chadyr-Lungsky_district_(Kiriet-Lunga__Kazaklia__Kopchak)_and_Vulkaneshtsky_district_(Chishmekioy),EURASIA,Jeong_2019,Moldova,45.54,28.38,turk1311,Turkic,Family,NO,NO,0,0
Georgian,nucl1302,NA,EURASIA,LazaridisNature2014,Georgia,42.5,41.85,kart1248,Kartvelian,Family,NO,NO,0,0
Georgian_Imeretins,imer1248,Georgia,EURASIA,Jeong_2019,Georgia,42.25,42.7,kart1248,Kartvelian,Family,NO,NO,0,0
Georgian_Laz,lazz1240,Turkey,EURASIA,Jeong_2019,Turkey,40.93,40.84,kart1248,Kartvelian,Family,NO,NO,0,0
Greek_Athens,gree1276,NA,EURASIA,LazaridisNature2014,Greece,37.96666667,23.71666667,indo1319,Indo-European,Family,NO,NO,mode1248,Greek
Greek_Thessaloniki,gree1276,NA,EURASIA,LazaridisNature2014,Greece,40.64,22.94,indo1319,Indo-European,Family,NO,NO,mode1248,Greek
Greek_WGA,gree1276,NA,EURASIA,LazaridisNature2014,Greece,37.9,23.7,indo1319,Indo-European,Family,NO,NO,mode1248,Greek
South_WesternGipuzkoa,bisc1236,NA,EURASIA,FloresBelloBasque2021,Spain,43.0065,-2.48,basq1248,Basque,Isolate,NO,NO,0,0
Gipuzkoa,guip1235,NA,EURASIA,FloresBelloBasque2021,Spain,43.1673,-2.1783,basq1248,Basque,Isolate,NO,NO,0,0
Hungarian1,hung1274,NA,EURASIA,LazaridisNature2014,Hungary,47.5,19.1,ural1272,Uralic,Family,NO,NO,0,0
Hungarian2,hung1274,NA,EURASIA,LazaridisNature2014,Hungary,47.487513,19.050293,ural1272,Uralic,Family,NO,NO,0,0
Ingushian,ingu1240,Ingushetia_Republic__Malgobeksky_district,EURASIA,Jeong_2019,Russia,43.52,44.58,nakh1245,Nakh-Daghestanian,Family,NO,NO,0,0
Iranian_Lor,luri1252,NA,EURASIA,LazaridisNature2016,Iran,33.465,48.339,indo1319,Indo-European,Family,NO,NO,0,0
Iranian_Mazandarani,maza1291,NA,EURASIA,LazaridisNature2016,Iran,36.529,52.671,indo1319,Indo-European,Family,NO,NO,maza1291,Mazanderani
Italian_Calabria,neap1235,NA,EURASIA,LazaridisNature2014,Italy,39.37,15.52,indo1319,Indo-European,Family,YES,NO,neap1235,Neapolitan
Italian_South,napo1241,NA,EURASIA,LazaridisNature2016,Italy,40.68,14.77,indo1319,Indo-European,Family,YES,NO,neap1235,Neapolitan
Jew_Georgian,jude1258,NA,EURASIA,LazaridisNature2014,Georgia,41.71666667,44.78333333,kart1248,Kartvelian,Family,NO,NO,0,0
Jew_Iraqi,jude1266,NA,EURASIA,LazaridisNature2014,Iraq,33.325,44.422,afro1255,Afro-Asiatic,Family,NO,NO,0,0
Jew_Turkish,ladi1251,NA,EURASIA,LazaridisNature2014,Turkey,41.01666667,28.95,indo1319,Indo-European,Family,NO,NO,0,0
Jordanian,sout3123,NA,EURASIA,LazaridisNature2014,Jordan,32.054645,35.914307,afro1255,Afro-Asiatic,Family,NO,NO,0,0
Kabardinian,kaba1278,Ingushetia_Republic__Baksansky_district,EURASIA,Jeong_2019,Russia,43.41,43.32,abkh1242,Abkhaz-Adyge,Family,NO,NO,0,0
Kaitag,darg1241,Dagestan_Republic,EURASIA,Jeong_2019,Russia,42.15,47.63,nakh1245,Nakh-Daghestanian,Family,NO,NO,0,0
Kalmyk,kalm1243,NA,EURASIA,LazaridisNature2014,Russia,46.169444,45.342778,mong1349,Mongolic-Khitan,Family,NO,NO,0,0
Karachai,kara1466,Karachaevo-Cherkessia_Republic,EURASIA,Jeong_2019,Russia,43.94,42.52,turk1311,Turkic,Family,NO,NO,0,0
Karakalpak,kara1467,Karakalpak_region,EURASIA,Jeong_2019,Uzbekistan,43,59,turk1311,Turkic,Family,NO,NO,0,0
Karelian_Northern,nort2673,Karelia_Republic__Kalevala_district,EURASIA,Jeong_2019,Russia,60.12,31.1,ural1272,Uralic,Family,NO,NO,0,0
Karelian_Southern,sout2676,Karelia_Republic__Prionezhsky_and_Olonets_districts,EURASIA,Jeong_2019,Russia,60.59,32.58,ural1272,Uralic,Family,NO,NO,0,0
Kazakhs_Aktyubinsk,kaza1248,Aktyubinsk_region__different_clans,EURASIA,Jeong_2019,Kazakhstan,50.17,57.1,turk1311,Turkic,Family,YES,NO,0,0
Kazakhs_West_Kazakhstan_Bayuli,kaza1248,West-Kazakhstan_region__mailnly_Bayuli_clan,EURASIA,Jeong_2019,Kazakhstan,51.14,51.22,turk1311,Turkic,Family,YES,NO,0,0
Kubachinian,kuba1248,Dagestan_Republic__Dakhadaevsky_district,EURASIA,Jeong_2019,Russia,42.08,47.58,nakh1245,Nakh-Daghestanian,Family,NO,NO,0,0
Kumyk,kumy1244,NA,EURASIA,LazaridisNature2014,Russia,43.25,46.583333,turk1311,Turkic,Family,NO,NO,0,0
Kurd,nort2641,Adyghei_Republic__Krasnogvardiysky_district,EURASIA,Jeong_2019,Russia,44.58,39.42,indo1319,Indo-European,Family,NO,NO,nort2641,KurdishNBahdini
Lak,lakk1252,Dagestan_Republic,EURASIA,Jeong_2019,Russia,42.17,47.12,nakh1245,Nakh-Daghestanian,Family,NO,NO,0,0
Lebanese,nort3139,NA,EURASIA,LazaridisNature2014,Lebanon,33.815666,35.57373,afro1255,Afro-Asiatic,Family,NO,NO,0,0
Lebanese_Christian,stan1323,NA,EURASIA,LazaridisNature2016,Lebanon,33.89,35.5,afro1255,Afro-Asiatic,Family,NO,NO,0,0
Lebanese_Muslim,stan1323,NA,EURASIA,LazaridisNature2016,Lebanon,33.89,35.5,afro1255,Afro-Asiatic,Family,NO,NO,0,0
Lezgin,lezg1247,NA,EURASIA,LazaridisNature2014,Russia,42.116667,48.183333,nakh1245,Nakh-Daghestanian,Family,NO,NO,0,0
Lithuanian,lith1251,NA,EURASIA,LazaridisNature2014,Lithuania,54.901882,23.917236,indo1319,Indo-European,Family,NO,NO,lith1251,Lithuanian
Maltese,malt1254,NA,EURASIA,LazaridisNature2014,Malta,35.94,14.38,afro1255,Afro-Asiatic,Family,NO,NO,0,0
Moldavian,mold1248,Shtefan-Vodsky_district__Kaplani,EURASIA,Jeong_2019,Moldova,46.38,29.87,indo1319,Indo-European,Family,NO,NO,roma1327,Romanian
Mordovian,erzy1239,NA,EURASIA,LazaridisNature2014,Russia,54.183333,45.183333,ural1272,Uralic,Family,NO,NO,0,0
Mordovian_Erzya,erzy1239,Mordovia_Republic__Lukoyanovsky__Ardatovsky__Chamzinsky___Ichkalovsky_districts,EURASIA,Jeong_2019,Russia,55.08,44.16,ural1272,Uralic,Family,NO,NO,0,0
Mordovian_Moksha,moks1248,Mordovia_Republic__Torbeevsky__Insarsky__Krasnoslobodsky_districts,EURASIA,Jeong_2019,Russia,54.08,43.13,ural1272,Uralic,Family,NO,NO,0,0
NorthAragon,stan1288,NA,EURASIA,FloresBelloBasque2021,Spain,42.43,-0.271,indo1319,Indo-European,Family,NO,NO,stan1288,Spanish
Central_WesternNafarroa,alto1237,NA,EURASIA,FloresBelloBasque2021,Spain,42.9134,-1.8181,basq1248,Basque,Isolate,NO,NO,0,0
NavarreLabourdin,east1470,NA,EURASIA,FloresBelloBasque2021,France,43.2298,-1.1888,basq1248,Basque,Isolate,NO,NO,0,0
North_WesternNafarroa,alto1238,NA,EURASIA,FloresBelloBasque2021,Spain,43.1724,-1.6588,basq1248,Basque,Isolate,NO,NO,0,0
Nogai,noga1249,NA,EURASIA,LazaridisNature2014,Russia,44.37252,41.93765,turk1311,Turkic,Family,NO,NO,0,0
Nogai_Astrakhan,noga1249,Astrakhan_region__Astrakhan__Krasnoyarsk_and_Volodarsky_districts,EURASIA,Jeong_2019,Russia,46.2,48.01,turk1311,Turkic,Family,NO,NO,0,0
Nogai_Stavropol,noga1249,Stavropol_region__Neftekumsky__Kochubeyevsky__Mineralovodchesky__districts,EURASIA,Jeong_2019,Russia,44.4,41.5,turk1311,Turkic,Family,NO,NO,0,0
Norwegian,norw1258,NA,EURASIA,LazaridisNature2014,Norway,60.359,5.358,indo1319,Indo-European,Family,NO,NO,norw1262,NorwegianNynorsk
Orcadian,scot1243,20,EURASIA,PattersonGenetics2012,OrkneyIslands,59,-3,indo1319,Indo-European,Family,NO,NO,scot1245,GaelicScottish
Ossetian,osse1243,NA,EURASIA,LazaridisNature2014,Russia,43.016667,44.65,indo1319,Indo-European,Family,NO,NO,iron1242,OsseticIron
Ossetian_Southern,iron1242,North_Ossetia_Republic,EURASIA,Jeong_2019,Russia,43.12,43.55,indo1319,Indo-European,Family,NO,NO,iron1242,OsseticIron
Palestinian,sout3123,38,EURASIA,PattersonGenetics2012,Israel,32,35,afro1255,Afro-Asiatic,Family,NO,NO,0,0
LaRioja,stan1288,NA,EURASIA,FloresBelloBasque2021,Spain,42.2871,-2.5396,indo1319,Indo-European,Family,NO,NO,stan1288,Spanish
Romanian,roma1327,NA,EURASIA,LazaridisNature2016,Romania,46.502222,22.950277,indo1319,Indo-European,Family,NO,NO,roma1327,Romanian
Roncal,ronc1236,NA,EURASIA,FloresBelloBasque2021,Spain,42.8096,-0.9557,basq1248,Basque,Isolate,NO,NO,0,0
Russian,russ1263,22,EURASIA,PattersonGenetics2012,Russia,61,40,indo1319,Indo-European,Family,NO,NO,russ1263,Russian
Russian_Archangelsk_Krasnoborsky,russ1263,Arkhangelsk_region__Krasnoborsky_district,EURASIA,Jeong_2019,Russia,61.56,45.94,indo1319,Indo-European,Family,NO,NO,russ1263,Russian
Russian_Archangelsk_Leshukonsky,russ1263,Arkhangelsk_region__Leshukonsky_district,EURASIA,Jeong_2019,Russia,64.9,45.74,indo1319,Indo-European,Family,NO,NO,russ1263,Russian
Russian_Archangelsk_Pinezhsky,russ1263,Arkhangelsk_region__Pinezhsky_district,EURASIA,Jeong_2019,Russia,64,44.26,indo1319,Indo-European,Family,NO,NO,russ1263,Russian
Russian_Belgorod,russ1263,Belgorod_region__Krasnensky__Prohorovsky__Yakovlevsky_districts,EURASIA,Jeong_2019,Russia,50.78,36.48,indo1319,Indo-European,Family,YES,NO,russ1263,Russian
Russian_Kaluga,russ1263,Kaluga_region__Baryatinsky__Borovsky_districts,EURASIA,Jeong_2019,Russia,54.31,34.53,indo1319,Indo-European,Family,NO,NO,russ1263,Russian
Russian_Kursk,russ1263,Kursk_region__Pristensky_and_Cheremisinovsky_districts,EURASIA,Jeong_2019,Russia,51.89,37.25,indo1319,Indo-European,Family,YES,NO,russ1263,Russian
Russian_Oryol,russ1263,Orel_region__Livnensky_and_Bolhovsky_districts,EURASIA,Jeong_2019,Russia,53.45,36,indo1319,Indo-European,Family,YES,NO,russ1263,Russian
Russian_Pskov_Ostrov,russ1263,Pskov_region__Ostrov_district,EURASIA,Jeong_2019,Russia,57.35,28.32,indo1319,Indo-European,Family,YES,NO,russ1263,Russian
Russian_Pskov_Porkhov,russ1263,Pskov_region__Porkhov_district,EURASIA,Jeong_2019,Russia,57.77,29.56,indo1319,Indo-European,Family,YES,NO,russ1263,Russian
Russian_Ryazan_Mihailovsky,russ1263,Ryazan_region__Mihailovsky_district,EURASIA,Jeong_2019,Russia,54.23,39.03,indo1319,Indo-European,Family,NO,NO,russ1263,Russian
Russian_Ryazan_Spassk_Ryazansky,russ1263,Ryazan_region__Spassky_district,EURASIA,Jeong_2019,Russia,54.4,40.53,indo1319,Indo-European,Family,NO,NO,russ1263,Russian
Russian_Smolensk,russ1263,Smolensk_region__Roslavl_and_Ershichi_districts,EURASIA,Jeong_2019,Russia,53.95,32.87,indo1319,Indo-European,Family,NO,NO,russ1263,Russian
Russian_Tver,russ1263,Tver_region__Kashin_district,EURASIA,Jeong_2019,Russia,57.36,37.61,indo1319,Indo-European,Family,YES,NO,russ1263,Russian
Russian_Yaroslavl,russ1263,Yaroslavl_region,EURASIA,Jeong_2019,Russia,58.03,38.5,indo1319,Indo-European,Family,YES,NO,russ1263,Russian
Sardinian,sard1257,28,EURASIA,PattersonGenetics2012,Italy,40,9,indo1319,Indo-European,Family,NO,NO,nuor1238,SardinianLogudoro
Scottish,scot1245,NA,EURASIA,LazaridisNature2014,GreatBritain,56.04,-5.44,indo1319,Indo-European,Family,YES,NO,scot1245,GaelicScottish
Sicilian_East,sici1248,NA,EURASIA,LazaridisNature2014,Italy,37.067,15.267,indo1319,Indo-European,Family,NO,NO,ital1282,Italian
Sicilian_West,sici1248,NA,EURASIA,LazaridisNature2014,Italy,38.019,12.515,indo1319,Indo-European,Family,NO,NO,ital1282,Italian
Soule,basq1250,NA,EURASIA,FloresBelloBasque2021,France,43.0962,-0.8761,basq1248,Basque,Isolate,NO,NO,0,0
Spanish_Andalucia,anda1279,NA,EURASIA,LazaridisNature2014,Spain,37.4,-6,indo1319,Indo-European,Family,YES,NO,stan1288,Spanish
Spanish_Aragon,arag1245,NA,EURASIA,LazaridisNature2014,Spain,41,-1,indo1319,Indo-European,Family,NO,NO,stan1288,Spanish
Spanish_Balearic,stan1288,NA,EURASIA,LazaridisNature2014,Spain,39.5,3,indo1319,Indo-European,Family,YES,NO,stan1288,Spanish
Spanish_Basque,basq1248,NA,EURASIA,LazaridisNature2014,Spain,43.13,-2.08,basq1248,Basque,Isolate,NO,NO,0,0
Spanish_Cantabria,astu1245,NA,EURASIA,LazaridisNature2014,Spain,43.3,-4,indo1319,Indo-European,Family,NO,NO,stan1288,Spanish
Spanish_CastillaLaMancha,cast1244,NA,EURASIA,LazaridisNature2014,Spain,39.9,-4,indo1319,Indo-European,Family,NO,NO,stan1288,Spanish
Spanish_CastillaLeon,cast1244,NA,EURASIA,LazaridisNature2014,Spain,41.4,-4.5,indo1319,Indo-European,Family,NO,NO,stan1288,Spanish
Spanish_Cataluna,stan1289,NA,EURASIA,LazaridisNature2014,Spain,41.8,1.5,indo1319,Indo-European,Family,NO,NO,stan1289,Catalan
Spanish_Extremadura,extr1243,NA,EURASIA,LazaridisNature2014,Spain,39,-6,indo1319,Indo-European,Family,NO,NO,stan1288,Spanish
Spanish_Galicia,gali1258,NA,EURASIA,LazaridisNature2014,Spain,42.5,-8.1,indo1319,Indo-European,Family,NO,NO,stan1288,Spanish
Spanish_Murcia,murc1238,NA,EURASIA,LazaridisNature2014,Spain,38,-1.1,indo1319,Indo-European,Family,NO,NO,stan1288,Spanish
Spanish_PaisVasco,basq1248,NA,EURASIA,LazaridisNature2014,Spain,42.8,-2.7,basq1248,Basque,Isolate,NO,NO,0,0
Spanish_Valencia,stan1289,NA,EURASIA,LazaridisNature2014,Spain,39.5,-0.4,indo1319,Indo-European,Family,NO,NO,stan1289,Catalan
Syrian,turo1239,NA,EURASIA,LazaridisNature2014,Syrian,35.128894,36.870117,afro1255,Afro-Asiatic,Family,NO,NO,0,0
Tabasaran,taba1259,Dagestan_Republic,EURASIA,Jeong_2019,Russia,41.96,47.82,nakh1245,Nakh-Daghestanian,Family,NO,NO,0,0
Tatar_Kazan,tata1255,Tatarstan_Republic__Arsk__Atnya__Aktanish__Mamadish_and_Sarmanovo_districts,EURASIA,Jeong_2019,Russia,55.23,52.58,turk1311,Turkic,Family,NO,NO,0,0
Tatar_Mishar,tata1255,Tatarstan_Republic__Drozhzhanovsky_and_Alekseevski_districts,EURASIA,Jeong_2019,Russia,55,48.5,turk1311,Turkic,Family,NO,NO,0,0
Turkish_Adana,nucl1301,NA,EURASIA,LazaridisNature2014,Turkey,37,35.31666667,turk1311,Turkic,Family,NO,NO,0,0
Turkish_Aydin,nucl1301,NA,EURASIA,LazaridisNature2014,Turkey,37.85,27.83333333,turk1311,Turkic,Family,NO,NO,0,0
Turkish_Balikesir,nucl1301,NA,EURASIA,LazaridisNature2014,Turkey,39.385,27.533,turk1311,Turkic,Family,NO,NO,0,0
Turkish_Istanbul,nucl1301,NA,EURASIA,LazaridisNature2014,Turkey,41.016666,28.95,turk1311,Turkic,Family,NO,NO,0,0
Turkish_Kayseri,nucl1301,NA,EURASIA,LazaridisNature2014,Turkey,38.733333,35.483333,turk1311,Turkic,Family,NO,NO,0,0
Turkish_Trabzon,nucl1301,NA,EURASIA,LazaridisNature2014,Turkey,41,39.73333333,turk1311,Turkic,Family,NO,NO,0,0
Turkmen,turk1304,NA,EURASIA,LazaridisNature2014,Uzbekistan,42.463993,59.611816,turk1311,Turkic,Family,NO,NO,0,0
Bergamo,ital1282,29,EURASIA,PattersonGenetics2012,Italy,45.69513077,9.680723297,indo1319,Indo-European,Family,NO,NO,ital1282,Italian
Tuscan,ital1282,29,EURASIA,PattersonGenetics2012,Italy,43,11,indo1319,Indo-European,Family,NO,NO,ital1282,Italian
Udmurt_Northern,nort2676,Udmurtia_Republic__Sharkansky__Alnashsky__Vavozhsky__Yukamensky_districts,EURASIA,Jeong_2019,Russia,56.09,52.37,ural1272,Uralic,Family,NO,NO,0,0
Udmurt_Southern,sout2681,Udmurtia_Republic__Sharkansky__Alnashsky__Vavozhsky__Yukamensky_districts,EURASIA,Jeong_2019,Russia,56.09,52.37,ural1272,Uralic,Family,NO,NO,0,0
Ukrainian_East,ukra1253,NA,EURASIA,LazaridisNature2014,Russia,50.2870922,31.5574036,indo1319,Indo-European,Family,NO,NO,ukra1253,Ukrainian
Ukrainian_Rovenskaya,ukra1253,Rovenskaya_region,EURASIA,Jeong_2019,Ukraine,51.32,26.58,indo1319,Indo-European,Family,YES,NO,ukra1253,Ukrainian
Ukrainian_Sumskaya,ukra1253,Sumskaya_region,EURASIA,Jeong_2019,Ukraine,50.82,33.87,indo1319,Indo-European,Family,NO,NO,ukra1253,Ukrainian
Ukrainian_West,ukra1253,NA,EURASIA,LazaridisNature2014,Ukraine,49.85,24.01666667,indo1319,Indo-European,Family,YES,NO,ukra1253,Ukrainian
Ukrainian_Zhitomirskaya,ukra1253,Zhitomirskaya_region,EURASIA,Jeong_2019,Ukraine,50.52,28.55,indo1319,Indo-European,Family,YES,NO,ukra1253,Ukrainian
Veps,veps1250,Karelia_Republic__Prionezhsky_district,EURASIA,Jeong_2019,Russia,61.27,35.02,ural1272,Uralic,Family,NO,NO,0,0
LabourdinBaztan,labo1236,NA,EURASIA,FloresBelloBasque2021,France/Spain,43.3438,-1.5414,basq1248,Basque,Isolate,NO,NO,0,0